CCSDS_OMM_VERS = 2.0
CREATION_DATE  = 
ORIGINATOR     = 

OBJECT_NAME    = AQUA
OBJECT_ID      = 2002-022A
CENTER_NAME    = EARTH
REF_FRAME      = TEME
TIME_SYSTEM    = UTC
MEAN_ELEMENT_THEORY = SGP/SGP4

EPOCH          = 2026-03-12T23:10:57.516672
MEAN_MOTION    = 14.61986054
ECCENTRICITY   = .0000582
INCLINATION    = 98.4179
RA_OF_ASC_NODE = 39.3906
ARG_OF_PERICENTER = 93.4732
MEAN_ANOMALY   = 307.8118

EPHEMERIS_TYPE = 0
CLASSIFICATION_TYPE = U
NORAD_CAT_ID   = 27424
ELEMENT_SET_NO = 999
REV_AT_EPOCH   = 26921
BSTAR          = .25893E-3
MEAN_MOTION_DOT = .1249E-4
MEAN_MOTION_DDOT = 0

CCSDS_OMM_VERS = 2.0
CREATION_DATE  = 
ORIGINATOR     = 

OBJECT_NAME    = CZ-4B R/B
OBJECT_ID      = 2002-024C
CENTER_NAME    = EARTH
REF_FRAME      = TEME
TIME_SYSTEM    = UTC
MEAN_ELEMENT_THEORY = SGP/SGP4

EPOCH          = 2026-03-12T18:28:33.893472
MEAN_MOTION    = 14.14548225
ECCENTRICITY   = .0050341
INCLINATION    = 98.8832
RA_OF_ASC_NODE = 125.1608
ARG_OF_PERICENTER = 15.5117
MEAN_ANOMALY   = 93.0238

EPHEMERIS_TYPE = 0
CLASSIFICATION_TYPE = U
NORAD_CAT_ID   = 27432
ELEMENT_SET_NO = 999
REV_AT_EPOCH   = 22967
BSTAR          = .48379E-4
MEAN_MOTION_DOT = .49E-6
MEAN_MOTION_DDOT = 0

CCSDS_OMM_VERS = 2.0
CREATION_DATE  = 
ORIGINATOR     = 

OBJECT_NAME    = MIDORI II (ADEOS-II)
OBJECT_ID      = 2002-056A
CENTER_NAME    = EARTH
REF_FRAME      = TEME
TIME_SYSTEM    = UTC
MEAN_ELEMENT_THEORY = SGP/SGP4

EPOCH          = 2026-03-12T19:32:01.614912
MEAN_MOTION    = 14.29288057
ECCENTRICITY   = .0001473
INCLINATION    = 98.7771
RA_OF_ASC_NODE = 30.3130
ARG_OF_PERICENTER = 39.0122
MEAN_ANOMALY   = 321.1166

EPHEMERIS_TYPE = 0
CLASSIFICATION_TYPE = U
NORAD_CAT_ID   = 27597
ELEMENT_SET_NO = 999
REV_AT_EPOCH   = 21074
BSTAR          = .17468E-3
MEAN_MOTION_DOT = .399E-5
MEAN_MOTION_DDOT = 0

CCSDS_OMM_VERS = 2.0
CREATION_DATE  = 
ORIGINATOR     = 

OBJECT_NAME    = H-2A R/B
OBJECT_ID      = 2002-056E
CENTER_NAME    = EARTH
REF_FRAME      = TEME
TIME_SYSTEM    = UTC
MEAN_ELEMENT_THEORY = SGP/SGP4

EPOCH          = 2026-03-12T20:11:58.778592
MEAN_MOTION    = 14.33763149
ECCENTRICITY   = .0070695
INCLINATION    = 98.3206
RA_OF_ASC_NODE = 32.0873
ARG_OF_PERICENTER = 151.3349
MEAN_ANOMALY   = 238.3866

EPHEMERIS_TYPE = 0
CLASSIFICATION_TYPE = U
NORAD_CAT_ID   = 27601
ELEMENT_SET_NO = 999
REV_AT_EPOCH   = 21456
BSTAR          = .12924E-3
MEAN_MOTION_DOT = .328E-5
MEAN_MOTION_DDOT = 0

CCSDS_OMM_VERS = 2.0
CREATION_DATE  = 
ORIGINATOR     = 

OBJECT_NAME    = CZ-4B R/B
OBJECT_ID      = 2003-049C
CENTER_NAME    = EARTH
REF_FRAME      = TEME
TIME_SYSTEM    = UTC
MEAN_ELEMENT_THEORY = SGP/SGP4

EPOCH          = 2026-03-12T13:07:26.945760
MEAN_MOTION    = 14.55023378
ECCENTRICITY   = .0047354
INCLINATION    = 98.6880
RA_OF_ASC_NODE = 66.5637
ARG_OF_PERICENTER = 221.9948
MEAN_ANOMALY   = 137.7613

EPHEMERIS_TYPE = 0
CLASSIFICATION_TYPE = U
NORAD_CAT_ID   = 28059
ELEMENT_SET_NO = 999
REV_AT_EPOCH   = 18701
BSTAR          = .12323E-3
MEAN_MOTION_DOT = .487E-5
MEAN_MOTION_DDOT = 0

CCSDS_OMM_VERS = 2.0
CREATION_DATE  = 
ORIGINATOR     = 

OBJECT_NAME    = CZ-2C R/B
OBJECT_ID      = 2004-012C
CENTER_NAME    = EARTH
REF_FRAME      = TEME
TIME_SYSTEM    = UTC
MEAN_ELEMENT_THEORY = SGP/SGP4

EPOCH          = 2026-03-12T17:49:37.336800
MEAN_MOTION    = 15.64897873
ECCENTRICITY   = .0012996
INCLINATION    = 97.7224
RA_OF_ASC_NODE = 137.3253
ARG_OF_PERICENTER = 297.1576
MEAN_ANOMALY   = 62.8357

EPHEMERIS_TYPE = 0
CLASSIFICATION_TYPE = U
NORAD_CAT_ID   = 28222
ELEMENT_SET_NO = 999
REV_AT_EPOCH   = 20475
BSTAR          = .58434E-3
MEAN_MOTION_DOT = .5748E-3
MEAN_MOTION_DDOT = 0

CCSDS_OMM_VERS = 2.0
CREATION_DATE  = 
ORIGINATOR     = 

OBJECT_NAME    = SL-16 R/B
OBJECT_ID      = 2004-021B
CENTER_NAME    = EARTH
REF_FRAME      = TEME
TIME_SYSTEM    = UTC
MEAN_ELEMENT_THEORY = SGP/SGP4

EPOCH          = 2026-03-12T17:02:05.663328
MEAN_MOTION    = 14.14596735
ECCENTRICITY   = .0004254
INCLINATION    = 70.9996
RA_OF_ASC_NODE = 226.1541
ARG_OF_PERICENTER = 4.8299
MEAN_ANOMALY   = 355.2863

EPHEMERIS_TYPE = 0
CLASSIFICATION_TYPE = U
NORAD_CAT_ID   = 28353
ELEMENT_SET_NO = 999
REV_AT_EPOCH   = 12326
BSTAR          = -.1168E-3
MEAN_MOTION_DOT = -.272E-5
MEAN_MOTION_DDOT = 0

CCSDS_OMM_VERS = 2.0
CREATION_DATE  = 
ORIGINATOR     = 

OBJECT_NAME    = CZ-4B R/B
OBJECT_ID      = 2004-035C
CENTER_NAME    = EARTH
REF_FRAME      = TEME
TIME_SYSTEM    = UTC
MEAN_ELEMENT_THEORY = SGP/SGP4

EPOCH          = 2026-03-12T15:47:06.309024
MEAN_MOTION    = 15.29120497
ECCENTRICITY   = .0030713
INCLINATION    = 97.3503
RA_OF_ASC_NODE = 105.8650
ARG_OF_PERICENTER = 320.6231
MEAN_ANOMALY   = 39.2777

EPHEMERIS_TYPE = 0
CLASSIFICATION_TYPE = U
NORAD_CAT_ID   = 28415
ELEMENT_SET_NO = 999
REV_AT_EPOCH   = 18036
BSTAR          = .30743E-3
MEAN_MOTION_DOT = .8737E-4
MEAN_MOTION_DDOT = 0

CCSDS_OMM_VERS = 2.0
CREATION_DATE  = 
ORIGINATOR     = 

OBJECT_NAME    = CZ-2C R/B
OBJECT_ID      = 2004-046B
CENTER_NAME    = EARTH
REF_FRAME      = TEME
TIME_SYSTEM    = UTC
MEAN_ELEMENT_THEORY = SGP/SGP4

EPOCH          = 2026-03-12T18:44:51.892224
MEAN_MOTION    = 14.26993277
ECCENTRICITY   = .0140048
INCLINATION    = 98.1981
RA_OF_ASC_NODE = 346.5727
ARG_OF_PERICENTER = 145.3368
MEAN_ANOMALY   = 215.7041

EPHEMERIS_TYPE = 0
CLASSIFICATION_TYPE = U
NORAD_CAT_ID   = 28480
ELEMENT_SET_NO = 999
REV_AT_EPOCH   = 10894
BSTAR          = .66408E-4
MEAN_MOTION_DOT = .139E-5
MEAN_MOTION_DDOT = 0

CCSDS_OMM_VERS = 2.0
CREATION_DATE  = 
ORIGINATOR     = 

OBJECT_NAME    = ARIANE 5 R/B
OBJECT_ID      = 2004-049H
CENTER_NAME    = EARTH
REF_FRAME      = TEME
TIME_SYSTEM    = UTC
MEAN_ELEMENT_THEORY = SGP/SGP4

EPOCH          = 2026-03-12T22:24:31.386240
MEAN_MOTION    = 14.85272856
ECCENTRICITY   = .0083707
INCLINATION    = 98.2632
RA_OF_ASC_NODE = 240.5121
ARG_OF_PERICENTER = 341.3820
MEAN_ANOMALY   = 18.4336

EPHEMERIS_TYPE = 0
CLASSIFICATION_TYPE = U
NORAD_CAT_ID   = 28499
ELEMENT_SET_NO = 999
REV_AT_EPOCH   = 14627
BSTAR          = .10891E-3
MEAN_MOTION_DOT = .93E-5
MEAN_MOTION_DDOT = 0

CCSDS_OMM_VERS = 2.0
CREATION_DATE  = 
ORIGINATOR     = 

OBJECT_NAME    = CZ-2D R/B
OBJECT_ID      = 2005-024B
CENTER_NAME    = EARTH
REF_FRAME      = TEME
TIME_SYSTEM    = UTC
MEAN_ELEMENT_THEORY = SGP/SGP4

EPOCH          = 2026-03-12T14:17:20.145984
MEAN_MOTION    = 15.60430671
ECCENTRICITY   = .0005369
INCLINATION    = 97.3599
RA_OF_ASC_NODE = 86.8489
ARG_OF_PERICENTER = 39.5162
MEAN_ANOMALY   = 320.6486

EPHEMERIS_TYPE = 0
CLASSIFICATION_TYPE = U
NORAD_CAT_ID   = 28738
ELEMENT_SET_NO = 999
REV_AT_EPOCH   = 14023
BSTAR          = .5409E-3
MEAN_MOTION_DOT = .44496E-3
MEAN_MOTION_DDOT = 0

CCSDS_OMM_VERS = 2.0
CREATION_DATE  = 
ORIGINATOR     = 

OBJECT_NAME    = ALOS (DAICHI)
OBJECT_ID      = 2006-002A
CENTER_NAME    = EARTH
REF_FRAME      = TEME
TIME_SYSTEM    = UTC
MEAN_ELEMENT_THEORY = SGP/SGP4

EPOCH          = 2026-03-12T20:07:42.462624
MEAN_MOTION    = 14.69822493
ECCENTRICITY   = .0000819
INCLINATION    = 98.1221
RA_OF_ASC_NODE = 27.7783
ARG_OF_PERICENTER = 61.2913
MEAN_ANOMALY   = 298.8374

EPHEMERIS_TYPE = 0
CLASSIFICATION_TYPE = U
NORAD_CAT_ID   = 28931
ELEMENT_SET_NO = 999
REV_AT_EPOCH   = 7394
BSTAR          = .30646E-3
MEAN_MOTION_DOT = .1781E-4
MEAN_MOTION_DDOT = 0

